ONEWEB-0607             
1 54671U 22166AF  25308.68645812 -.00000030  00000+0 -10390-3 0  9998
2 54671  87.9171 288.7542 0001734  88.6803 271.4530 13.21826398141889
ONEWEB-0608             
1 54672U 22166AG  25308.92013400  .00000713  00000+0  16955-2 0  9996
2 54672  87.9178 288.6923 0001639  80.3871 279.7448 13.21823993141929
ONEWEB-0610             
1 54673U 22166AH  25309.20316056  .00000095  00000+0  19971-3 0  9997
2 54673  87.9171 288.6720 0001236  84.9157 275.2118 13.21825379141866
ONEWEB-0611             
1 54674U 22166AJ  25309.19657051 -.00000024  00000+0 -90180-4 0  9995
2 54674  87.9171 288.6687 0002084  88.0239 272.1134 13.21824184141853
ONEWEB-0612             
1 54675U 22166AK  25308.90696112 -.00000054  00000+0 -16342-3 0  9995
2 54675  87.9169 288.7053 0001797  88.7848 271.3492 13.21826518141808
ONEWEB-0615             
1 54676U 22166AL  25309.18998120  .00000026  00000+0  32240-4 0  9994
2 54676  87.9173 288.6753 0001866  87.1265 273.0082 13.21826612141857
ONEWEB-0655             
1 54677U 22166AM  25309.24100667  .00000013  00000+0 -57673-7 0  9990
2 54677  87.9167 288.6703 0001757  95.0848 265.0487 13.21828636141858
ONEWEB-0659             
1 54678U 22166AN  25309.18177946 -.00000103  00000+0 -28212-3 0  9992
2 54678  87.9167 288.6820 0001919  83.9895 276.1457 13.21826439141935
